CSS (TIANHE)            
1 48274U 21035A   24042.30736826  .00045203  00000+0  47443-3 0  9991
2 48274  41.4683 138.3730 0007613 347.0049  13.0594 15.63517830159233
